[{"OBJECT_NAME":"MOLA","OBJECT_ID":"2024-053B","EPOCH":"2026-03-09T13:55:02.414784","MEAN_MOTION":15.51750904,"ECCENTRICITY":0.0002562,"INCLINATION":49.987,"RA_OF_ASC_NODE":89.7695,"ARG_OF_PERICENTER":328.5586,"MEAN_ANOMALY":31.5227,"EPHEMERIS_TYPE":0,"CLASSIFICATION_TYPE":"U","NORAD_CAT_ID":59289,"ELEMENT_SET_NO":999,"REV_AT_EPOCH":10599,"BSTAR":0.00057233,"MEAN_MOTION_DOT":0.00034507,"MEAN_MOTION_DDOT":0},{"OBJECT_NAME":"SITRO-AIS 46","OBJECT_ID":"2024-199AR","EPOCH":"2026-03-09T22:46:46.525440","MEAN_MOTION":15.51304628,"ECCENTRICITY":0.00068268,"INCLINATION":97.307,"RA_OF_ASC_NODE":303.3786,"ARG_OF_PERICENTER":303.3302,"MEAN_ANOMALY":56.7296,"EPHEMERIS_TYPE":0,"CLASSIFICATION_TYPE":"U","NORAD_CAT_ID":61774,"ELEMENT_SET_NO":999,"REV_AT_EPOCH":11904,"BSTAR":0.00081688742,"MEAN_MOTION_DOT":0.00048106,"MEAN_MOTION_DDOT":0}]
